{"лозову|харківська": {"coords": [48.8892, 36.3132], "source": "local", "place_name": "лозову", "confidence": 0.95, "cached_at": 1769179190.089779, "expires_at": 1771771190.089779}, "чернігів": {"coords": [51.4982, 31.2893], "source": "local", "place_name": "чернігів", "confidence": 1.0, "cached_at": 1769179190.0903559, "expires_at": 1771771190.0903559}, "близнюки": {"coords": [48.8531, 36.5519], "source": "local", "place_name": "близнюки", "confidence": 0.85, "cached_at": 1769179190.090695, "expires_at": 1771771190.090695}, "орілька": {"coords": [48.9756, 36.016], "source": "local", "place_name": "орілька", "confidence": 0.85, "cached_at": 1769179191.2432268, "expires_at": 1771771191.2432268}, "скороходового|полтавська": {"coords": [50.861, 33.1272], "source": "local", "place_name": "скороходового", "confidence": 0.8, "cached_at": 1769179195.490548, "expires_at": 1771771195.490548}, "кринички": {"coords": [48.1647, 38.0465], "source": "local", "place_name": "кринички", "confidence": 0.85, "cached_at": 1769179195.493723, "expires_at": 1771771195.493723}, "шахтарське": {"coords": [47.8598, 37.01], "source": "local", "place_name": "шахтарське", "confidence": 0.85, "cached_at": 1769179195.494245, "expires_at": 1771771195.494245}, "машівка": {"coords": [49.4445, 34.8788], "source": "local", "place_name": "машівка", "confidence": 0.85, "cached_at": 1769179195.494812, "expires_at": 1771771195.494812}, "харківщину": {"coords": [50.8047, 34.7057], "source": "local", "place_name": "харківщину", "confidence": 0.85, "cached_at": 1769179197.165733, "expires_at": 1771771197.165733}, "кам": {"coords": [49.6612079, 26.9564936], "source": "nominatim", "place_name": "Вікс-Фільтрон Україна", "confidence": 0.7000052400244143, "cached_at": 1769179198.208265, "expires_at": 1771771198.208265}, "запоріжжя": {"coords": [47.8388, 35.1396], "source": "local", "place_name": "запоріжжя", "confidence": 1.0, "cached_at": 1769181709.5109131, "expires_at": 1771773709.5109131}, "барвінкове": {"coords": [48.9064, 37.0128], "source": "local", "place_name": "барвінкове", "confidence": 1.0, "cached_at": 1769184506.9747589, "expires_at": 1771776506.9747589}, "андріївка": {"coords": [48.1146, 38.7172], "source": "local", "place_name": "андріївка", "confidence": 0.85, "cached_at": 1769184599.6288362, "expires_at": 1771776599.6288362}, "пролісне": {"coords": [49.7155, 36.9323], "source": "local", "place_name": "пролісне", "confidence": 0.85, "cached_at": 1769184599.629152, "expires_at": 1771776599.629152}, "старого|харківська": {"coords": [50.1484, 31.0801], "source": "local", "place_name": "старого", "confidence": 0.8, "cached_at": 1769186183.443072, "expires_at": 1771778183.443072}, "бірки": {"coords": [51.8096, 25.1945], "source": "local", "place_name": "бірки", "confidence": 0.85, "cached_at": 1769186423.265009, "expires_at": 1771778423.265009}, "балаклія": {"coords": [49.4571, 36.8536], "source": "local", "place_name": "балаклія", "confidence": 1.0, "cached_at": 1769188281.680772, "expires_at": 1771780281.680772}}